MTI                     
1 26102U 00014A   21274.36873172  .00025038  00000-0  26592-3 0  9994
2 26102  97.4558 186.6909 0003438 291.5505  68.5381 15.64050749197880
CFESAT                  
1 30777U 07006F   21274.10000112  .00012335  00000-0  28963-3 0  9993
2 30777  35.4234 179.4728 0003914 181.7762 178.2952 15.41224742808983
SPIRALE A               
1 33751U 09008C   21273.34272227  .00000096  00000-0  44724-3 0  9999
2 33751   1.9911 136.7408 5396684 121.9171 301.9251  4.58803348182863
SPIRALE B               
1 33752U 09008D   21274.42128041  .00003395  00000-0  91087-3 0  9993
2 33752   1.8442 264.7821 6880059 224.1811  53.2683  2.79572228117860
SAPPHIRE                
1 39088U 13009C   21274.46010456  .00000024  00000-0  23707-4 0  9992
2 39088  98.4405 111.5304 0010839 332.1355  27.9248 14.34252428450015
